{
  "type": "FeatureCollection",
  "features": [
    {
      "type": "Feature",
      "properties": {
        "norad_id": 43564,
        "name": "GSAT0221 (GALILEO 25)",
        "group": "galileo",
        "lat": 56.46565456320429,
        "lon": 90.14506497923956,
        "alt_km": 23235.270724619128,
        "timestamp": "2025-12-20T07:33:51.075989+00:00",
        "meta_object_name": "GSAT0221 (GALILEO 25)",
        "meta_object_id": "2018-060A",
        "meta_epoch": "2025-12-19T13:40:28.820064",
        "meta_mean_motion": 1.70475889,
        "meta_eccentricity": 0.00067205,
        "meta_inclination": 57.2264,
        "meta_ra_of_asc_node": 346.6332,
        "meta_arg_of_pericenter": 285.6827,
        "meta_mean_anomaly": 74.2548,
        "meta_ephemeris_type": 0,
        "meta_classification_type": "U",
        "meta_norad_cat_id": 43564,
        "meta_element_set_no": 999,
        "meta_rev_at_epoch": 4610,
        "meta_bstar": 0,
        "meta_mean_motion_dot": -7.2e-07,
        "meta_mean_motion_ddot": 0,
        "tle_line1": "1 43564U 18060A   25353.56977801 -.00000072  00000+0  00000+0 0  9996",
        "tle_line2": "2 43564  57.2264 346.6332 0006720 285.6827  74.2548  1.70475889 46100"
      },
      "geometry": {
        "type": "Point",
        "coordinates": [
          90.14506497923956,
          56.46565456320429
        ]
      }
    },
    {
      "type": "Feature",
      "properties": {
        "norad_id": 43565,
        "name": "GSAT0222 (GALILEO 26)",
        "group": "galileo",
        "lat": -30.514328962699068,
        "lon": -35.708116413305845,
        "alt_km": 23216.156537390187,
        "timestamp": "2025-12-20T07:33:51.076003+00:00",
        "meta_object_name": "GSAT0222 (GALILEO 26)",
        "meta_object_id": "2018-060B",
        "meta_epoch": "2025-12-18T00:42:17.845344",
        "meta_mean_motion": 1.70475645,
        "meta_eccentricity": 0.00060883,
        "meta_inclination": 57.23,
        "meta_ra_of_asc_node": 346.6777,
        "meta_arg_of_pericenter": 265.4214,
        "meta_mean_anomaly": 94.5238,
        "meta_ephemeris_type": 0,
        "meta_classification_type": "U",
        "meta_norad_cat_id": 43565,
        "meta_element_set_no": 999,
        "meta_rev_at_epoch": 4612,
        "meta_bstar": 0,
        "meta_mean_motion_dot": -7.6e-07,
        "meta_mean_motion_ddot": 0,
        "tle_line1": "1 43565U 18060B   25352.02937321 -.00000076  00000+0  00000+0 0  9994",
        "tle_line2": "2 43565  57.2300 346.6777 0006088 265.4214  94.5238  1.70475645 46121"
      },
      "geometry": {
        "type": "Point",
        "coordinates": [
          -35.708116413305845,
          -30.514328962699068
        ]
      }
    },
    {
      "type": "Feature",
      "properties": {
        "norad_id": 43566,
        "name": "GSAT0219 (GALILEO 23)",
        "group": "galileo",
        "lat": -5.923581202332628,
        "lon": 170.44192597272917,
        "alt_km": 23226.891226515476,
        "timestamp": "2025-12-20T07:33:51.076015+00:00",
        "meta_object_name": "GSAT0219 (GALILEO 23)",
        "meta_object_id": "2018-060C",
        "meta_epoch": "2025-12-18T20:05:25.027008",
        "meta_mean_motion": 1.70475846,
        "meta_eccentricity": 0.00058667,
        "meta_inclination": 57.2292,
        "meta_ra_of_asc_node": 346.6575,
        "meta_arg_of_pericenter": 289.8664,
        "meta_mean_anomaly": 70.0835,
        "meta_ephemeris_type": 0,
        "meta_classification_type": "U",
        "meta_norad_cat_id": 43566,
        "meta_element_set_no": 999,
        "meta_rev_at_epoch": 4611,
        "meta_bstar": 0,
        "meta_mean_motion_dot": -7.4e-07,
        "meta_mean_motion_ddot": 0,
        "tle_line1": "1 43566U 18060C   25352.83709522 -.00000074  00000+0  00000+0 0  9992",
        "tle_line2": "2 43566  57.2292 346.6575 0005866 289.8664  70.0835  1.70475846 46114"
      },
      "geometry": {
        "type": "Point",
        "coordinates": [
          170.44192597272917,
          -5.923581202332628
        ]
      }
    },
    {
      "type": "Feature",
      "properties": {
        "norad_id": 43567,
        "name": "GSAT0220 (GALILEO 24)",
        "group": "galileo",
        "lat": 41.170757449376715,
        "lon": 20.90317864803141,
        "alt_km": 23227.455226077036,
        "timestamp": "2025-12-20T07:33:51.076026+00:00",
        "meta_object_name": "GSAT0220 (GALILEO 24)",
        "meta_object_id": "2018-060D",
        "meta_epoch": "2025-12-17T07:09:30.654144",
        "meta_mean_motion": 1.70475982,
        "meta_eccentricity": 0.00060597,
        "meta_inclination": 57.2291,
        "meta_ra_of_asc_node": 346.699,
        "meta_arg_of_pericenter": 286.0855,
        "meta_mean_anomaly": 73.8638,
        "meta_ephemeris_type": 0,
        "meta_classification_type": "U",
        "meta_norad_cat_id": 43567,
        "meta_element_set_no": 999,
        "meta_rev_at_epoch": 4607,
        "meta_bstar": 0,
        "meta_mean_motion_dot": -7.8e-07,
        "meta_mean_motion_ddot": 0,
        "tle_line1": "1 43567U 18060D   25351.29827146 -.00000078  00000+0  00000+0 0  9999",
        "tle_line2": "2 43567  57.2291 346.6990 0006059 286.0855  73.8638  1.70475982 46079"
      },
      "geometry": {
        "type": "Point",
        "coordinates": [
          20.90317864803141,
          41.170757449376715
        ]
      }
    },
    {
      "type": "Feature",
      "properties": {
        "norad_id": 49809,
        "name": "GSAT0223 (GALILEO 27)",
        "group": "galileo",
        "lat": 30.985209688516733,
        "lon": 143.7287177281099,
        "alt_km": 23223.21898278703,
        "timestamp": "2025-12-20T07:33:51.076037+00:00",
        "meta_object_name": "GSAT0223 (GALILEO 27)",
        "meta_object_id": "2021-116A",
        "meta_epoch": "2025-12-19T11:56:47.637312",
        "meta_mean_motion": 1.7047609,
        "meta_eccentricity": 0.00044147,
        "meta_inclination": 57.2179,
        "meta_ra_of_asc_node": 346.5305,
        "meta_arg_of_pericenter": 254.6091,
        "meta_mean_anomaly": 105.9777,
        "meta_ephemeris_type": 0,
        "meta_classification_type": "U",
        "meta_norad_cat_id": 49809,
        "meta_element_set_no": 999,
        "meta_rev_at_epoch": 2512,
        "meta_bstar": 0,
        "meta_mean_motion_dot": -7.2e-07,
        "meta_mean_motion_ddot": 0,
        "tle_line1": "1 49809U 21116A   25353.49777358 -.00000072  00000+0  00000+0 0  9997",
        "tle_line2": "2 49809  57.2179 346.5305 0004414 254.6091 105.9777  1.70476090 25129"
      },
      "geometry": {
        "type": "Point",
        "coordinates": [
          143.7287177281099,
          30.985209688516733
        ]
      }
    },
    {
      "type": "Feature",
      "properties": {
        "norad_id": 49810,
        "name": "GSAT0224 (GALILEO 28)",
        "group": "galileo",
        "lat": -54.22843495788908,
        "lon": -130.04757636980838,
        "alt_km": 23216.65969862706,
        "timestamp": "2025-12-20T07:33:51.076048+00:00",
        "meta_object_name": "GSAT0224 (GALILEO 28)",
        "meta_object_id": "2021-116B",
        "meta_epoch": "2025-12-18T10:12:29.028672",
        "meta_mean_motion": 1.70476126,
        "meta_eccentricity": 0.00037733,
        "meta_inclination": 57.2191,
        "meta_ra_of_asc_node": 346.558,
        "meta_arg_of_pericenter": 258.3671,
        "meta_mean_anomaly": 276.634,
        "meta_ephemeris_type": 0,
        "meta_classification_type": "U",
        "meta_norad_cat_id": 49810,
        "meta_element_set_no": 999,
        "meta_rev_at_epoch": 2512,
        "meta_bstar": 0,
        "meta_mean_motion_dot": -7.5e-07,
        "meta_mean_motion_ddot": 0,
        "tle_line1": "1 49810U 21116B   25352.42533598 -.00000075  00000+0  00000+0 0  9990",
        "tle_line2": "2 49810  57.2191 346.5580 0003773 258.3671 276.6340  1.70476126 25124"
      },
      "geometry": {
        "type": "Point",
        "coordinates": [
          -130.04757636980838,
          -54.22843495788908
        ]
      }
    },
    {
      "type": "Feature",
      "properties": {
        "norad_id": 59598,
        "name": "GSAT0225 (GALILEO 29)",
        "group": "galileo",
        "lat": -49.173302590214504,
        "lon": -19.858117869098894,
        "alt_km": 23224.53594961345,
        "timestamp": "2025-12-20T07:33:51.076060+00:00",
        "meta_object_name": "GSAT0225 (GALILEO 29)",
        "meta_object_id": "2024-079A",
        "meta_epoch": "2025-12-19T07:40:30.040032",
        "meta_mean_motion": 1.7047502,
        "meta_eccentricity": 0.0002191,
        "meta_inclination": 55.0052,
        "meta_ra_of_asc_node": 106.1117,
        "meta_arg_of_pericenter": 185.2617,
        "meta_mean_anomaly": 171.1938,
        "meta_ephemeris_type": 0,
        "meta_classification_type": "U",
        "meta_norad_cat_id": 59598,
        "meta_element_set_no": 999,
        "meta_rev_at_epoch": 1024,
        "meta_bstar": 0,
        "meta_mean_motion_dot": -6e-08,
        "meta_mean_motion_ddot": 0,
        "tle_line1": "1 59598U 24079A   25353.31979213 -.00000006  00000+0  00000+0 0  9996",
        "tle_line2": "2 59598  55.0052 106.1117 0002191 185.2617 171.1938  1.70475020 10248"
      },
      "geometry": {
        "type": "Point",
        "coordinates": [
          -19.858117869098894,
          -49.173302590214504
        ]
      }
    }
  ]
}